0 COSMOS 80
1 01570U 65070A   13282.48122880 -.00000084  00000-0  74659-4 0  8346
2 01570 056.0556 082.3446 0104280 158.6986 297.3852 12.52740847201129
0 COSMOS 80
1 01570U 65070A   13284.55252929 -.00000102  00000-0 -31862-4 0  8356
2 01570 056.0561 076.7248 0104167 161.4725 278.7055 12.52741180201386
0 COSMOS 80
1 01570U 65070A   13286.80226755 -.00000116  00000-0 -12097-3 0  8368
2 01570 056.0567 070.6210 0104061 164.5399 344.7064 12.52741226201664
0 COSMOS 80
1 01570U 65070A   13289.42794376 -.00000098  00000-0 -13263-4 0  8375
2 01570 056.0577 063.4977 0103790 168.1257 306.1298 12.52740873201990
0 COSMOS 80
1 01570U 65070A   13291.50416140 -.00000090  00000-0  41452-4 0  8380
2 01570 056.0577 057.8652 0103814 170.9245 309.6083 12.52740802202254
0 COSMOS 80
1 01570U 65070A   13293.83001588 -.00000079  00000-0  11016-3 0  8394
2 01570 056.0579 051.5555 0103687 174.0753 358.9007 12.52740865202540
0 COSMOS 80
1 01570U 65070A   13296.11922824 -.00000095  00000-0  81262-5 0  8405
2 01570 056.0580 045.3451 0103572 177.1955 242.9225 12.52741027202836
